{
  "type": "FeatureCollection",
  "features": [
    {
      "type": "Feature",
      "properties": {
        "name": "Greater Noida east corridor",
        "fallback": null,
        "notes": "Traced Jul 2026. Runs NW-SE from the Bil Akbarpur / Sector Zeta side (~77.523, 28.521) down past Kasna to the GBU approach (~77.584, 28.441). Name is a working label — rename to the road once confirmed. Band is ~4-5 km across, well wider than the 300-500 m the readme asks for, so it will also catch parallel roads inside it; tighten before trusting the flag rate."
      },
      "geometry": {
        "type": "Polygon",
        "coordinates": [
          [
            [
              77.5807902,
              28.5047562
            ],
            [
              77.5884834,
              28.5248551
            ],
            [
              77.5930677,
              28.5222792
            ],
            [
              77.5912876,
              28.5191064
            ],
            [
              77.5909166,
              28.5121411
            ],
            [
              77.5928234,
              28.5057876
            ],
            [
              77.6051276,
              28.4703483
            ],
            [
              77.6012049,
              28.4547203
            ],
            [
              77.585795,
              28.4490973
            ],
            [
              77.5638588,
              28.4713096
            ],
            [
              77.555241,
              28.481295
            ],
            [
              77.5421185,
              28.5021236
            ],
            [
              77.5157307,
              28.5266188
            ],
            [
              77.5159183,
              28.5302455
            ],
            [
              77.5141153,
              28.5334896
            ],
            [
              77.5172924,
              28.5381148
            ],
            [
              77.5234044,
              28.5450124
            ],
            [
              77.5303183,
              28.5559756
            ],
            [
              77.5416648,
              28.5638685
            ],
            [
              77.5640743,
              28.5427188
            ],
            [
              77.5683402,
              28.5386178
            ],
            [
              77.5732831,
              28.5351148
            ],
            [
              77.5646625,
              28.5270048
            ],
            [
              77.5619923,
              28.5121909
            ],
            [
              77.5694547,
              28.4990308
            ],
            [
              77.5807902,
              28.5047562
            ]
          ]
        ]
      }
    }
  ]
}