{
  "type": "FeatureCollection",
  "features": [
    {
      "type": "Feature",
      "properties": {
        "name": "IGI Airport",
        "priority": 0,
        "fares": {
          "hatchback": 1400,
          "sedan": 1500,
          "suv": 2400,
          "suv_premium": 4000
        },
        "toll": 200,
        "notes": "Covers T1/T2/T3 + Aerocity/Mahipalpur (provider confirmed same 1400). Highway toll 200 is now priced in (see `toll`); the roof carrier is a rider option added on top, waived past the threshold in rideEstimate. Terminal deltas TBD."
      },
      "geometry": {
        "type": "Polygon",
        "coordinates": [
          [
            [
              77.0560382,
              28.5747014
            ],
            [
              77.145,
              28.5747014
            ],
            [
              77.146172,
              28.5570561
            ],
            [
              77.1308192,
              28.5217439
            ],
            [
              77.1456137,
              28.494516
            ],
            [
              77.0560382,
              28.505
            ],
            [
              77.0560382,
              28.5747014
            ]
          ]
        ]
      }
    },
    {
      "type": "Feature",
      "properties": {
        "name": "New Delhi Railway Station",
        "priority": 5,
        "fares": {
          "hatchback": 1200,
          "sedan": 1300,
          "suv": 1900,
          "suv_premium": 3300
        }
      },
      "geometry": {
        "type": "Polygon",
        "coordinates": [
          [
            [
              77.2197594,
              28.6563997
            ],
            [
              77.2241,
              28.65296
            ],
            [
              77.22809,
              28.65062
            ],
            [
              77.23075,
              28.64713
            ],
            [
              77.23168,
              28.643
            ],
            [
              77.2349602,
              28.6395798
            ],
            [
              77.22809,
              28.63538
            ],
            [
              77.2241,
              28.63304
            ],
            [
              77.2194,
              28.63222
            ],
            [
              77.2147,
              28.63304
            ],
            [
              77.21071,
              28.63538
            ],
            [
              77.199712,
              28.6335859
            ],
            [
              77.2019151,
              28.6473135
            ],
            [
              77.2054399,
              28.6544665
            ],
            [
              77.21071,
              28.65062
            ],
            [
              77.2147,
              28.65296
            ],
            [
              77.2197594,
              28.6563997
            ]
          ]
        ]
      }
    },
    {
      "type": "Feature",
      "properties": {
        "name": "Old Delhi Railway Station",
        "priority": 5,
        "fares": {
          "hatchback": 1300,
          "sedan": 1400,
          "suv": 2100,
          "suv_premium": 3600
        }
      },
      "geometry": {
        "type": "Polygon",
        "coordinates": [
          [
            [
              77.22,
              28.6646
            ],
            [
              77.234,
              28.6646
            ],
            [
              77.2556685,
              28.6581544
            ],
            [
              77.2598848,
              28.6545384
            ],
            [
              77.2598848,
              28.6400559
            ],
            [
              77.23432,
              28.63851
            ],
            [
              77.22876,
              28.64974
            ],
            [
              77.22,
              28.655
            ],
            [
              77.20758,
              28.64917
            ],
            [
              77.20547,
              28.66491
            ],
            [
              77.22,
              28.6646
            ]
          ]
        ]
      }
    },
    {
      "type": "Feature",
      "properties": {
        "name": "Kashmiri Gate",
        "priority": 5,
        "fares": {
          "hatchback": 1400,
          "sedan": 1500,
          "suv": 2250,
          "suv_premium": 3850
        }
      },
      "geometry": {
        "type": "Polygon",
        "coordinates": [
          [
            [
              77.222,
              28.673
            ],
            [
              77.235,
              28.673
            ],
            [
              77.235,
              28.6646
            ],
            [
              77.222,
              28.6646
            ],
            [
              77.222,
              28.673
            ]
          ]
        ]
      }
    },
    {
      "type": "Feature",
      "properties": {
        "name": "Ghaziabad Railway Station",
        "priority": 5,
        "fares": {
          "hatchback": 700,
          "sedan": 800,
          "suv": 1100,
          "suv_premium": 1950
        }
      },
      "geometry": {
        "type": "Polygon",
        "coordinates": [
          [
            [
              77.4416,
              28.66987
            ],
            [
              77.44943,
              28.6685
            ],
            [
              77.46563,
              28.6698
            ],
            [
              77.47971,
              28.6683
            ],
            [
              77.48451,
              28.66468
            ],
            [
              77.48589,
              28.66287
            ],
            [
              77.5063874,
              28.658258
            ],
            [
              77.5007861,
              28.6435115
            ],
            [
              77.5063874,
              28.634089
            ],
            [
              77.4631986,
              28.6251241
            ],
            [
              77.4458576,
              28.6268804
            ],
            [
              77.4378541,
              28.6298075
            ],
            [
              77.4118426,
              28.6327345
            ],
            [
              77.3918785,
              28.6309048
            ],
            [
              77.3975477,
              28.6543185
            ],
            [
              77.4032294,
              28.6623539
            ],
            [
              77.4186331,
              28.6680878
            ],
            [
              77.4279686,
              28.6713643
            ],
            [
              77.43377,
              28.6685
            ],
            [
              77.4416,
              28.66987
            ]
          ]
        ]
      }
    },
    {
      "type": "Feature",
      "properties": {
        "name": "Greater Noida local",
        "priority": 0,
        "fares": {
          "hatchback": 400,
          "sedan": 500,
          "suv": 650,
          "suv_premium": 1100
        },
        "notes": "Beta/Gamma/Zeta/Delta + Omicron/Mu sectors (provider confirmed 400), Depot metro, Bennett (via highway). Verify Depot + Bennett fall inside."
      },
      "geometry": {
        "type": "Polygon",
        "coordinates": [
          [
            [
              77.5246709,
              28.4566883
            ],
            [
              77.5124005,
              28.4644681
            ],
            [
              77.4988115,
              28.4787108
            ],
            [
              77.47686,
              28.5078793
            ],
            [
              77.6036172,
              28.5132055
            ],
            [
              77.6669324,
              28.4708847
            ],
            [
              77.5815772,
              28.4276982
            ],
            [
              77.5636007,
              28.4356848
            ],
            [
              77.548331,
              28.4380346
            ],
            [
              77.5446378,
              28.4391682
            ],
            [
              77.5403266,
              28.4432665
            ],
            [
              77.5246709,
              28.4566883
            ]
          ]
        ]
      }
    },
    {
      "type": "Feature",
      "properties": {
        "name": "Gaur City",
        "priority": 5,
        "fares": {
          "hatchback": 650,
          "sedan": 750,
          "suv": 1000,
          "suv_premium": 1800
        }
      },
      "geometry": {
        "type": "Polygon",
        "coordinates": [
          [
            [
              77.4405447,
              28.6296332
            ],
            [
              77.4454492,
              28.6281138
            ],
            [
              77.4520847,
              28.6268477
            ],
            [
              77.4543927,
              28.6260879
            ],
            [
              77.4578547,
              28.6253282
            ],
            [
              77.4628325,
              28.6265522
            ],
            [
              77.5060412,
              28.6347044
            ],
            [
              77.5981121,
              28.5758526
            ],
            [
              77.4554116,
              28.5756603
            ],
            [
              77.4573183,
              28.5187264
            ],
            [
              77.392568,
              28.5354173
            ],
            [
              77.3953177,
              28.5979852
            ],
            [
              77.3917881,
              28.631659
            ],
            [
              77.4108291,
              28.6329251
            ],
            [
              77.4194841,
              28.6326719
            ],
            [
              77.4269852,
              28.6314058
            ],
            [
              77.4405447,
              28.6296332
            ]
          ]
        ]
      }
    },
    {
      "type": "Feature",
      "properties": {
        "name": "Noida (Jewar) Airport",
        "priority": 5,
        "fares": {
          "hatchback": 1500,
          "sedan": 1600,
          "suv": 2400,
          "suv_premium": 4150
        },
        "notes": "VERIFY anchor position on geojson.io. Highway toll extra, off-system."
      },
      "geometry": {
        "type": "Polygon",
        "coordinates": [
          [
            [
              77.605,
              28.17093
            ],
            [
              77.62059,
              28.1682
            ],
            [
              77.63381,
              28.16041
            ],
            [
              77.64265,
              28.14875
            ],
            [
              77.64575,
              28.135
            ],
            [
              77.64265,
              28.12125
            ],
            [
              77.63381,
              28.10959
            ],
            [
              77.62059,
              28.1018
            ],
            [
              77.605,
              28.09907
            ],
            [
              77.58941,
              28.1018
            ],
            [
              77.57619,
              28.10959
            ],
            [
              77.56735,
              28.12125
            ],
            [
              77.56425,
              28.135
            ],
            [
              77.56735,
              28.14875
            ],
            [
              77.57619,
              28.16041
            ],
            [
              77.58941,
              28.1682
            ],
            [
              77.605,
              28.17093
            ]
          ]
        ]
      }
    },
    {
      "type": "Feature",
      "properties": {
        "name": "South Extension",
        "priority": 5,
        "fares": {
          "hatchback": 1200,
          "sedan": 1300,
          "suv": 1900,
          "suv_premium": 3300
        }
      },
      "geometry": {
        "type": "Polygon",
        "coordinates": [
          [
            [
              77.2361931,
              28.5999752
            ],
            [
              77.2471447,
              28.6000089
            ],
            [
              77.2539465,
              28.5867977
            ],
            [
              77.2551831,
              28.580644
            ],
            [
              77.2552693,
              28.5770348
            ],
            [
              77.2573304,
              28.5676221
            ],
            [
              77.2585671,
              28.5563983
            ],
            [
              77.2350701,
              28.5560362
            ],
            [
              77.2350701,
              28.5417331
            ],
            [
              77.2242461,
              28.5399096
            ],
            [
              77.1927108,
              28.5355639
            ],
            [
              77.1789012,
              28.5328478
            ],
            [
              77.1801378,
              28.5576528
            ],
            [
              77.1863211,
              28.5621786
            ],
            [
              77.2081691,
              28.5636269
            ],
            [
              77.2129097,
              28.5668853
            ],
            [
              77.213322,
              28.5734018
            ],
            [
              77.2112609,
              28.5810039
            ],
            [
              77.2063211,
              28.596648
            ],
            [
              77.2151331,
              28.5999362
            ],
            [
              77.2361931,
              28.5999752
            ]
          ]
        ]
      }
    },
    {
      "type": "Feature",
      "properties": {
        "name": "Connaught Place / Shivaji Stadium",
        "priority": 6,
        "fares": {
          "hatchback": 1200,
          "sedan": 1300,
          "suv": 1900,
          "suv_premium": 3000
        },
        "notes": "Provider round-trip override: 1970. Priority 6, not 5: this polygon overlaps ITO / India Gate (priority 4) right across CP itself, and at a gap of 1 matchZone read the carve-out as an accidental border and blended 1200 with 1100 down to 1150. 6 is the same gap every other deliberate carve-out uses."
      },
      "geometry": {
        "type": "Polygon",
        "coordinates": [
          [
            [
              77.2115,
              28.63828
            ],
            [
              77.21542,
              28.6376
            ],
            [
              77.21874,
              28.63565
            ],
            [
              77.22096,
              28.63274
            ],
            [
              77.22173,
              28.6293
            ],
            [
              77.22096,
              28.62586
            ],
            [
              77.21874,
              28.62295
            ],
            [
              77.21542,
              28.621
            ],
            [
              77.215,
              28.60653
            ],
            [
              77.21578,
              28.60109
            ],
            [
              77.21363,
              28.59899
            ],
            [
              77.21037,
              28.59688
            ],
            [
              77.20601,
              28.59724
            ],
            [
              77.1882564,
              28.6094133
            ],
            [
              77.1801053,
              28.6241109
            ],
            [
              77.1935436,
              28.6285585
            ],
            [
              77.20127,
              28.6293
            ],
            [
              77.20204,
              28.63274
            ],
            [
              77.20426,
              28.63565
            ],
            [
              77.20758,
              28.6376
            ],
            [
              77.2115,
              28.63828
            ]
          ]
        ]
      }
    },
    {
      "type": "Feature",
      "properties": {
        "name": "South Delhi ring",
        "priority": 0,
        "fares": {
          "hatchback": 1300,
          "sedan": 1400,
          "suv": 2100,
          "suv_premium": 3600
        }
      },
      "geometry": {
        "type": "Polygon",
        "coordinates": [
          [
            [
              77.145,
              28.556
            ],
            [
              77.1802274,
              28.5575465
            ],
            [
              77.1796691,
              28.5330255
            ],
            [
              77.235,
              28.54155
            ],
            [
              77.2368934,
              28.5011396
            ],
            [
              77.1997674,
              28.4854385
            ],
            [
              77.145,
              28.495
            ],
            [
              77.1310984,
              28.5239512
            ],
            [
              77.145,
              28.556
            ]
          ]
        ]
      }
    },
    {
      "type": "Feature",
      "properties": {
        "name": "Chanakyapuri",
        "priority": 5,
        "fares": {
          "hatchback": 1300,
          "sedan": 1400,
          "suv": 2100,
          "suv_premium": 3600
        },
        "notes": "Includes US Embassy (round-trip override 2150)."
      },
      "geometry": {
        "type": "Polygon",
        "coordinates": [
          [
            [
              77.1807662,
              28.6235892
            ],
            [
              77.1884767,
              28.6088331
            ],
            [
              77.1972888,
              28.6032243
            ],
            [
              77.20268,
              28.60116
            ],
            [
              77.20601,
              28.59724
            ],
            [
              77.20757,
              28.59021
            ],
            [
              77.2106426,
              28.5842618
            ],
            [
              77.2116732,
              28.5806419
            ],
            [
              77.2160015,
              28.5688765
            ],
            [
              77.2083753,
              28.5632648
            ],
            [
              77.1848783,
              28.5616356
            ],
            [
              77.1875579,
              28.5690575
            ],
            [
              77.1741241,
              28.5750829
            ],
            [
              77.1717794,
              28.5771419
            ],
            [
              77.17029,
              28.58
            ],
            [
              77.17432,
              28.59084
            ],
            [
              77.17315,
              28.596
            ],
            [
              77.1721745,
              28.6009616
            ],
            [
              77.1701918,
              28.6079245
            ],
            [
              77.1763602,
              28.6183679
            ],
            [
              77.1807662,
              28.6235892
            ]
          ]
        ]
      }
    },
    {
      "type": "Feature",
      "properties": {
        "name": "DU South Campus",
        "priority": 6,
        "fares": {
          "hatchback": 1400,
          "sedan": 1500,
          "suv": 2250,
          "suv_premium": 3850
        },
        "notes": "Round-trip override 2100."
      },
      "geometry": {
        "type": "Polygon",
        "coordinates": [
          [
            [
              77.1695309,
              28.6104387
            ],
            [
              77.17385,
              28.59909
            ],
            [
              77.17433,
              28.59595
            ],
            [
              77.17655,
              28.59304
            ],
            [
              77.17733,
              28.5896
            ],
            [
              77.17655,
              28.58616
            ],
            [
              77.17433,
              28.58325
            ],
            [
              77.17102,
              28.5813
            ],
            [
              77.1704627,
              28.5800838
            ],
            [
              77.1709268,
              28.5803241
            ],
            [
              77.17114,
              28.5784523
            ],
            [
              77.1705005,
              28.5745213
            ],
            [
              77.1662374,
              28.5743341
            ],
            [
              77.1557928,
              28.5748957
            ],
            [
              77.145,
              28.575
            ],
            [
              77.11183,
              28.575
            ],
            [
              77.0699144,
              28.5744306
            ],
            [
              77.07,
              28.58995
            ],
            [
              77.0693203,
              28.5947141
            ],
            [
              77.07982,
              28.59297
            ],
            [
              77.13913,
              28.64238
            ],
            [
              77.1554316,
              28.6235308
            ],
            [
              77.1695309,
              28.6104387
            ]
          ]
        ]
      }
    },
    {
      "type": "Feature",
      "properties": {
        "name": "Karol Bagh / Sarai Rohilla",
        "priority": 5,
        "fares": {
          "hatchback": 1300,
          "sedan": 1400,
          "suv": 2100,
          "suv_premium": 3600
        }
      },
      "geometry": {
        "type": "Polygon",
        "coordinates": [
          [
            [
              77.1940319,
              28.679744
            ],
            [
              77.2025564,
              28.6714207
            ],
            [
              77.2028313,
              28.6705763
            ],
            [
              77.2050312,
              28.6680429
            ],
            [
              77.20602,
              28.66419
            ],
            [
              77.20743,
              28.658
            ],
            [
              77.20602,
              28.65181
            ],
            [
              77.20203,
              28.64657
            ],
            [
              77.20084,
              28.64156
            ],
            [
              77.2008135,
              28.637453
            ],
            [
              77.2016948,
              28.6304921
            ],
            [
              77.1809865,
              28.6239175
            ],
            [
              77.1704121,
              28.6082529
            ],
            [
              77.1541098,
              28.6244977
            ],
            [
              77.1397903,
              28.64248
            ],
            [
              77.1604985,
              28.6628373
            ],
            [
              77.1740956,
              28.675884
            ],
            [
              77.1779454,
              28.6804678
            ],
            [
              77.191557,
              28.6799853
            ],
            [
              77.1940319,
              28.679744
            ]
          ]
        ]
      }
    },
    {
      "type": "Feature",
      "properties": {
        "name": "Faridabad",
        "priority": 0,
        "fares": {
          "hatchback": 1450,
          "sedan": 1550,
          "suv": 2300,
          "suv_premium": 4000
        },
        "notes": "Includes Greater Faridabad / Neharpar (provider confirmed same 1450)."
      },
      "geometry": {
        "type": "Polygon",
        "coordinates": [
          [
            [
              77.2679923,
              28.485214
            ],
            [
              77.2756489,
              28.4967499
            ],
            [
              77.2901423,
              28.4984322
            ],
            [
              77.3016886,
              28.4925801
            ],
            [
              77.307978,
              28.4901768
            ],
            [
              77.3150877,
              28.4839279
            ],
            [
              77.3284867,
              28.4945027
            ],
            [
              77.3465344,
              28.5139672
            ],
            [
              77.3487148,
              28.4801159
            ],
            [
              77.3957489,
              28.4671243
            ],
            [
              77.4331884,
              28.4636687
            ],
            [
              77.4642617,
              28.3972391
            ],
            [
              77.3828284,
              28.3783862
            ],
            [
              77.321478,
              28.3604728
            ],
            [
              77.2979052,
              28.3600014
            ],
            [
              77.2111291,
              28.391653
            ],
            [
              77.2535144,
              28.4322784
            ],
            [
              77.2319594,
              28.4605478
            ],
            [
              77.2437331,
              28.4788591
            ],
            [
              77.2679923,
              28.485214
            ]
          ]
        ]
      }
    },
    {
      "type": "Feature",
      "properties": {
        "name": "Dwarka",
        "priority": 1,
        "fares": {
          "hatchback": 1500,
          "sedan": 1600,
          "suv": 2400,
          "suv_premium": 4150
        },
        "notes": "Priority 1 so the West Delhi border blends to the midpoint instead of West Delhi winning outright."
      },
      "geometry": {
        "type": "Polygon",
        "coordinates": [
          [
            [
              77.005,
              28.615
            ],
            [
              77.0404392,
              28.6082479
            ],
            [
              77.07,
              28.615
            ],
            [
              77.0699144,
              28.5747014
            ],
            [
              77.0563466,
              28.5749722
            ],
            [
              77.05583,
              28.5256089
            ],
            [
              76.9991765,
              28.5247408
            ],
            [
              77.005,
              28.615
            ]
          ]
        ]
      }
    },
    {
      "type": "Feature",
      "properties": {
        "name": "Dwarka Mor",
        "priority": 10,
        "fares": {
          "hatchback": 1550,
          "sedan": 1650,
          "suv": 2500,
          "suv_premium": 4250
        }
      },
      "geometry": {
        "type": "Polygon",
        "coordinates": [
          [
            [
              77.0251278,
              28.6404051
            ],
            [
              77.0356794,
              28.6494474
            ],
            [
              77.0459464,
              28.6506226
            ],
            [
              77.0480382,
              28.6408319
            ],
            [
              77.0521732,
              28.620658
            ],
            [
              77.0541422,
              28.611424
            ],
            [
              77.0419243,
              28.6086842
            ],
            [
              77.0403804,
              28.6082324
            ],
            [
              77.0330821,
              28.6097931
            ],
            [
              77.0045859,
              28.6151359
            ],
            [
              77.0063067,
              28.6169353
            ],
            [
              77.0078012,
              28.61815
            ],
            [
              77.0087421,
              28.6190731
            ],
            [
              77.0111005,
              28.6204659
            ],
            [
              77.0125901,
              28.6240618
            ],
            [
              77.0202865,
              28.6327786
            ],
            [
              77.0251278,
              28.6404051
            ]
          ]
        ]
      }
    },
    {
      "type": "Feature",
      "properties": {
        "name": "Gurgaon sectors 76-83",
        "priority": 4,
        "fares": {
          "hatchback": 1800,
          "sedan": 1900,
          "suv": 2900,
          "suv_premium": 4950
        },
        "notes": "Sectors 76-83 along NH-48 (provider: 1800). Toll extra."
      },
      "geometry": {
        "type": "Polygon",
        "coordinates": [
          [
            [
              76.8513638,
              28.4426793
            ],
            [
              77.03,
              28.4426793
            ],
            [
              77.03,
              28.385
            ],
            [
              76.8513638,
              28.385
            ],
            [
              76.8513638,
              28.4426793
            ]
          ]
        ]
      }
    },
    {
      "type": "Feature",
      "properties": {
        "name": "IMT Manesar",
        "priority": 5,
        "fares": {
          "hatchback": 2000,
          "sedan": 2100,
          "suv": 3200,
          "suv_premium": 5500
        },
        "notes": "IMT Phases I-V, Sectors 1-5, M-1 to M-11 (provider: 2000). Toll extra."
      },
      "geometry": {
        "type": "Polygon",
        "coordinates": [
          [
            [
              76.8633621,
              28.3859577
            ],
            [
              76.9998426,
              28.3859577
            ],
            [
              76.9998426,
              28.3635245
            ],
            [
              77.1588199,
              28.3622048
            ],
            [
              77.1572567,
              28.3155012
            ],
            [
              76.9998426,
              28.3193041
            ],
            [
              76.8633621,
              28.3193041
            ],
            [
              76.8633621,
              28.3859577
            ]
          ]
        ]
      }
    },
    {
      "type": "Feature",
      "properties": {
        "name": "GN institutional",
        "priority": 5,
        "fares": {
          "hatchback": 500,
          "sedan": 600,
          "suv": 800,
          "suv_premium": 1400
        },
        "notes": "Knowledge Park I-III, Alpha, Jagat Farm, Surajpur, Sharda University."
      },
      "geometry": {
        "type": "Polygon",
        "coordinates": [
          [
            [
              77.4838367,
              28.4996418
            ],
            [
              77.4986543,
              28.4793555
            ],
            [
              77.510166,
              28.467379
            ],
            [
              77.5179911,
              28.4607344
            ],
            [
              77.5260829,
              28.4554184
            ],
            [
              77.4964852,
              28.4384125
            ],
            [
              77.4752803,
              28.4489004
            ],
            [
              77.4565052,
              28.4589988
            ],
            [
              77.4297632,
              28.4755896
            ],
            [
              77.4409512,
              28.484991
            ],
            [
              77.4577635,
              28.508281
            ],
            [
              77.476143,
              28.5079054
            ],
            [
              77.4838367,
              28.4996418
            ]
          ]
        ]
      }
    },
    {
      "type": "Feature",
      "properties": {
        "name": "Dadri / Tilapta",
        "priority": 2,
        "fares": {
          "hatchback": 400,
          "sedan": 500,
          "suv": 650,
          "suv_premium": 1100
        },
        "notes": "Provider: 400 toward Greater Noida side; Tilapta roundabout pocket is 350 (separate zone)."
      },
      "geometry": {
        "type": "Polygon",
        "coordinates": [
          [
            [
              77.4549711,
              28.5757354
            ],
            [
              77.6016339,
              28.5757354
            ],
            [
              77.6016339,
              28.5076862
            ],
            [
              77.4549711,
              28.5076862
            ],
            [
              77.4549711,
              28.5757354
            ]
          ]
        ]
      }
    },
    {
      "type": "Feature",
      "properties": {
        "name": "Gautam Buddha University",
        "priority": 8,
        "fares": {
          "hatchback": 600,
          "sedan": 700,
          "suv": 1000,
          "suv_premium": 1650
        }
      },
      "geometry": {
        "type": "Polygon",
        "coordinates": [
          [
            [
              77.5860111,
              28.4276586
            ],
            [
              77.5953467,
              28.4141115
            ],
            [
              77.5761982,
              28.398753
            ],
            [
              77.5608051,
              28.400152
            ],
            [
              77.5510027,
              28.3985096
            ],
            [
              77.5538034,
              28.3939928
            ],
            [
              77.5482021,
              28.3956353
            ],
            [
              77.548202,
              28.3935822
            ],
            [
              77.5398,
              28.3931716
            ],
            [
              77.5337319,
              28.3952247
            ],
            [
              77.5496062,
              28.4110305
            ],
            [
              77.527197,
              28.3960459
            ],
            [
              77.5326731,
              28.4091687
            ],
            [
              77.5242065,
              28.4059106
            ],
            [
              77.5205024,
              28.4063761
            ],
            [
              77.5130942,
              28.4035834
            ],
            [
              77.4966902,
              28.4031179
            ],
            [
              77.4744655,
              28.3993942
            ],
            [
              77.4554066,
              28.4124219
            ],
            [
              77.4408688,
              28.4385247
            ],
            [
              77.4292276,
              28.4752883
            ],
            [
              77.4593852,
              28.4575021
            ],
            [
              77.4964141,
              28.4393773
            ],
            [
              77.52619,
              28.4554884
            ],
            [
              77.5452771,
              28.4393773
            ],
            [
              77.5645393,
              28.4358682
            ],
            [
              77.5860111,
              28.4276586
            ]
          ]
        ]
      }
    },
    {
      "type": "Feature",
      "properties": {
        "name": "Buddh Circuit",
        "priority": 5,
        "fares": {
          "hatchback": 700,
          "sedan": 800,
          "suv": 1100,
          "suv_premium": 1950
        }
      },
      "geometry": {
        "type": "Polygon",
        "coordinates": [
          [
            [
              77.5493796,
              28.4103657
            ],
            [
              77.578181,
              28.4091688
            ],
            [
              77.598818,
              28.4068415
            ],
            [
              77.6173386,
              28.4017215
            ],
            [
              77.6215719,
              28.38636
            ],
            [
              77.625276,
              28.374721
            ],
            [
              77.6114724,
              28.3663102
            ],
            [
              77.6181433,
              28.3440859
            ],
            [
              77.5636057,
              28.318411
            ],
            [
              77.4669826,
              28.3175892
            ],
            [
              77.4777185,
              28.3475821
            ],
            [
              77.4879876,
              28.3599055
            ],
            [
              77.4949893,
              28.3672989
            ],
            [
              77.4758265,
              28.3987293
            ],
            [
              77.5123385,
              28.404315
            ],
            [
              77.5335048,
              28.4052459
            ],
            [
              77.5493796,
              28.4103657
            ]
          ]
        ]
      }
    },
    {
      "type": "Feature",
      "properties": {
        "name": "Yamuna Expressway sectors",
        "priority": 0,
        "fares": {
          "hatchback": 800,
          "sedan": 900,
          "suv": 1300,
          "suv_premium": 2200
        },
        "notes": "YEIDA sectors between Buddh Circuit and Jewar."
      },
      "geometry": {
        "type": "Polygon",
        "coordinates": [
          [
            [
              77.4976093,
              28.3207327
            ],
            [
              77.5624128,
              28.3177964
            ],
            [
              77.62,
              28.345
            ],
            [
              77.62,
              28.24
            ],
            [
              77.5,
              28.24
            ],
            [
              77.4976093,
              28.3207327
            ]
          ]
        ]
      }
    },
    {
      "type": "Feature",
      "properties": {
        "name": "Noida expressway sectors",
        "priority": 3,
        "fares": {
          "hatchback": 700,
          "sedan": 800,
          "suv": 1100,
          "suv_premium": 2000
        },
        "notes": "Confirmed: 700 for expressway sectors away from Botanical (Amity, 137, 142); sectors near Botanical are 800 via the Botanical zone."
      },
      "geometry": {
        "type": "Polygon",
        "coordinates": [
          [
            [
              77.32,
              28.555
            ],
            [
              77.4581483,
              28.519385
            ],
            [
              77.4581575,
              28.506784
            ],
            [
              77.4417017,
              28.4852325
            ],
            [
              77.4294405,
              28.475306
            ],
            [
              77.4324025,
              28.4635747
            ],
            [
              77.3852556,
              28.4686237
            ],
            [
              77.3494625,
              28.4801746
            ],
            [
              77.3464677,
              28.5208352
            ],
            [
              77.3345384,
              28.5264502
            ],
            [
              77.321118,
              28.5376793
            ],
            [
              77.32,
              28.555
            ]
          ]
        ]
      }
    },
    {
      "type": "Feature",
      "properties": {
        "name": "Noida central (Sector 18)",
        "priority": 3,
        "fares": {
          "hatchback": 800,
          "sedan": 900,
          "suv": 1300,
          "suv_premium": 2200
        },
        "notes": "Sector 18 / Atta / City Centre - provider confirmed same 800 as Botanical."
      },
      "geometry": {
        "type": "Polygon",
        "coordinates": [
          [
            [
              77.3180606,
              28.5891616
            ],
            [
              77.3507657,
              28.6127034
            ],
            [
              77.37,
              28.6
            ],
            [
              77.39578,
              28.5894617
            ],
            [
              77.393477,
              28.558901
            ],
            [
              77.3927943,
              28.5370137
            ],
            [
              77.3221564,
              28.5543897
            ],
            [
              77.3098688,
              28.5549893
            ],
            [
              77.3020183,
              28.5660815
            ],
            [
              77.2951918,
              28.5723766
            ],
            [
              77.3180606,
              28.5891616
            ]
          ]
        ]
      }
    },
    {
      "type": "Feature",
      "properties": {
        "name": "Vaishali",
        "priority": 5,
        "fares": {
          "hatchback": 800,
          "sedan": 900,
          "suv": 1300,
          "suv_premium": 2200
        }
      },
      "geometry": {
        "type": "Polygon",
        "coordinates": [
          [
            [
              77.34,
              28.65847
            ],
            [
              77.34588,
              28.65745
            ],
            [
              77.3470485,
              28.6615881
            ],
            [
              77.3536652,
              28.6609182
            ],
            [
              77.3643538,
              28.6595783
            ],
            [
              77.3964747,
              28.6531479
            ],
            [
              77.3928064,
              28.6317829
            ],
            [
              77.39578,
              28.5906794
            ],
            [
              77.3724641,
              28.5987024
            ],
            [
              77.3541795,
              28.6096696
            ],
            [
              77.3448661,
              28.6172069
            ],
            [
              77.33412,
              28.63255
            ],
            [
              77.32914,
              28.63547
            ],
            [
              77.32581,
              28.63984
            ],
            [
              77.32465,
              28.645
            ],
            [
              77.32581,
              28.65016
            ],
            [
              77.32914,
              28.65453
            ],
            [
              77.336697,
              28.6559228
            ],
            [
              77.34,
              28.65847
            ]
          ]
        ]
      }
    },
    {
      "type": "Feature",
      "properties": {
        "name": "Kaushambi",
        "priority": 6,
        "fares": {
          "hatchback": 900,
          "sedan": 1000,
          "suv": 1450,
          "suv_premium": 2500
        },
        "notes": "Kept tight - Anand Vihar station (also 900) is 800 m west."
      },
      "geometry": {
        "type": "Polygon",
        "coordinates": [
          [
            [
              77.3274629,
              28.6530462
            ],
            [
              77.32635,
              28.65048
            ],
            [
              77.3240962,
              28.6451635
            ],
            [
              77.3249797,
              28.6416742
            ],
            [
              77.3254014,
              28.6396064
            ],
            [
              77.3287882,
              28.6377971
            ],
            [
              77.3321751,
              28.6332736
            ],
            [
              77.3367561,
              28.6316871
            ],
            [
              77.3430865,
              28.6267786
            ],
            [
              77.343563,
              28.6225961
            ],
            [
              77.3438806,
              28.6212019
            ],
            [
              77.3459454,
              28.6178558
            ],
            [
              77.34735,
              28.61557
            ],
            [
              77.3511205,
              28.6133545
            ],
            [
              77.3417231,
              28.6075795
            ],
            [
              77.3382453,
              28.6093624
            ],
            [
              77.3285747,
              28.6147243
            ],
            [
              77.3260298,
              28.6160647
            ],
            [
              77.3239939,
              28.6176285
            ],
            [
              77.3217034,
              28.6185221
            ],
            [
              77.3168681,
              28.6196391
            ],
            [
              77.3102514,
              28.6234368
            ],
            [
              77.3092335,
              28.6343822
            ],
            [
              77.2990235,
              28.6460179
            ],
            [
              77.3046861,
              28.658648
            ],
            [
              77.3151137,
              28.6610576
            ],
            [
              77.3270412,
              28.6602823
            ],
            [
              77.3366127,
              28.6564059
            ],
            [
              77.3274629,
              28.6530462
            ]
          ]
        ]
      }
    },
    {
      "type": "Feature",
      "properties": {
        "name": "Raj Nagar Extension",
        "priority": 5,
        "fares": {
          "hatchback": 900,
          "sedan": 1000,
          "suv": 1450,
          "suv_premium": 2500
        }
      },
      "geometry": {
        "type": "Polygon",
        "coordinates": [
          [
            [
              77.441972,
              28.7252296
            ],
            [
              77.4494405,
              28.7317787
            ],
            [
              77.4634439,
              28.7317787
            ],
            [
              77.473713,
              28.7285042
            ],
            [
              77.4765137,
              28.7178613
            ],
            [
              77.4886498,
              28.7078074
            ],
            [
              77.4961183,
              28.6697261
            ],
            [
              77.450374,
              28.6680878
            ],
            [
              77.4317029,
              28.6709547
            ],
            [
              77.3952942,
              28.6543908
            ],
            [
              77.3276113,
              28.6564388
            ],
            [
              77.326211,
              28.7117207
            ],
            [
              77.3714885,
              28.7100831
            ],
            [
              77.3910932,
              28.7215455
            ],
            [
              77.4088308,
              28.7276856
            ],
            [
              77.4233009,
              28.7280949
            ],
            [
              77.4312361,
              28.7252296
            ],
            [
              77.441972,
              28.7252296
            ]
          ]
        ]
      }
    },
    {
      "type": "Feature",
      "properties": {
        "name": "Laxmi Nagar / Preet Vihar",
        "priority": 4,
        "fares": {
          "hatchback": 1000,
          "sedan": 1100,
          "suv": 1600,
          "suv_premium": 2750
        }
      },
      "geometry": {
        "type": "Polygon",
        "coordinates": [
          [
            [
              77.23567,
              28.7054657
            ],
            [
              77.3283835,
              28.6991172
            ],
            [
              77.3272325,
              28.659129
            ],
            [
              77.3130418,
              28.6604012
            ],
            [
              77.3038742,
              28.6554023
            ],
            [
              77.3008069,
              28.6452566
            ],
            [
              77.3092667,
              28.6345187
            ],
            [
              77.3112479,
              28.6242067
            ],
            [
              77.2944516,
              28.6255471
            ],
            [
              77.2601431,
              28.6250341
            ],
            [
              77.2597962,
              28.6570863
            ],
            [
              77.2353253,
              28.6643446
            ],
            [
              77.23567,
              28.7054657
            ]
          ]
        ]
      }
    },
    {
      "type": "Feature",
      "properties": {
        "name": "Mayur Vihar / Akshardham",
        "priority": 4,
        "fares": {
          "hatchback": 950,
          "sedan": 1050,
          "suv": 1500,
          "suv_premium": 2600
        }
      },
      "geometry": {
        "type": "Polygon",
        "coordinates": [
          [
            [
              77.2602672,
              28.6251431
            ],
            [
              77.31,
              28.625
            ],
            [
              77.34203,
              28.60698
            ],
            [
              77.2972279,
              28.572822
            ],
            [
              77.2752559,
              28.5909173
            ],
            [
              77.2599872,
              28.6013806
            ],
            [
              77.2602672,
              28.6251431
            ]
          ]
        ]
      }
    },
    {
      "type": "Feature",
      "properties": {
        "name": "Ashram / Maharani Bagh",
        "priority": 6,
        "fares": {
          "hatchback": 1100,
          "sedan": 1200,
          "suv": 1750,
          "suv_premium": 3050
        }
      },
      "geometry": {
        "type": "Polygon",
        "coordinates": [
          [
            [
              77.2702988,
              28.5953145
            ],
            [
              77.2808106,
              28.5868085
            ],
            [
              77.2820473,
              28.5837317
            ],
            [
              77.2859635,
              28.5808358
            ],
            [
              77.2964752,
              28.5735956
            ],
            [
              77.3096864,
              28.5553173
            ],
            [
              77.2888689,
              28.5547742
            ],
            [
              77.2771204,
              28.5545932
            ],
            [
              77.2667448,
              28.5562994
            ],
            [
              77.2589292,
              28.5561746
            ],
            [
              77.2585671,
              28.5565794
            ],
            [
              77.256712,
              28.5618294
            ],
            [
              77.2577426,
              28.566174
            ],
            [
              77.2552693,
              28.5728716
            ],
            [
              77.2534142,
              28.5866275
            ],
            [
              77.2476431,
              28.6000197
            ],
            [
              77.2609877,
              28.6002785
            ],
            [
              77.2702988,
              28.5953145
            ]
          ]
        ]
      }
    },
    {
      "type": "Feature",
      "properties": {
        "name": "Badarpur",
        "priority": 6,
        "fares": {
          "hatchback": 1000,
          "sedan": 1100,
          "suv": 1600,
          "suv_premium": 2750
        },
        "notes": "Corrected by provider from 1200 to 1000."
      },
      "geometry": {
        "type": "Polygon",
        "coordinates": [
          [
            [
              77.3198398,
              28.5545206
            ],
            [
              77.3214818,
              28.5362158
            ],
            [
              77.3459795,
              28.5210561
            ],
            [
              77.3462407,
              28.5133712
            ],
            [
              77.3336723,
              28.5002674
            ],
            [
              77.3291988,
              28.4946511
            ],
            [
              77.3269808,
              28.4891836
            ],
            [
              77.3254897,
              28.4886219
            ],
            [
              77.3203771,
              28.4888091
            ],
            [
              77.3171818,
              28.4856262
            ],
            [
              77.3144125,
              28.4848772
            ],
            [
              77.3135604,
              28.4848772
            ],
            [
              77.3109152,
              28.487487
            ],
            [
              77.3076847,
              28.4903264
            ],
            [
              77.3018441,
              28.4910558
            ],
            [
              77.2931472,
              28.4974245
            ],
            [
              77.28884,
              28.49816
            ],
            [
              77.2734574,
              28.4932041
            ],
            [
              77.2740398,
              28.5556433
            ],
            [
              77.3198398,
              28.5545206
            ]
          ]
        ]
      }
    },
    {
      "type": "Feature",
      "properties": {
        "name": "ITO / India Gate",
        "priority": 4,
        "fares": {
          "hatchback": 1100,
          "sedan": 1200,
          "suv": 1750,
          "suv_premium": 3050
        },
        "notes": "ITO, Pragati Maidan, India Gate, Mandi House."
      },
      "geometry": {
        "type": "Polygon",
        "coordinates": [
          [
            [
              77.215,
              28.64
            ],
            [
              77.26,
              28.64
            ],
            [
              77.26,
              28.6
            ],
            [
              77.215,
              28.6
            ],
            [
              77.215,
              28.64
            ]
          ]
        ]
      }
    },
    {
      "type": "Feature",
      "properties": {
        "name": "Nehru Place / Kalkaji",
        "priority": 4,
        "fares": {
          "hatchback": 1150,
          "sedan": 1250,
          "suv": 1850,
          "suv_premium": 3150
        },
        "notes": "Kalkaji, Govindpuri included; 1150 confirmed. CR Park is 1200 (separate zone)."
      },
      "geometry": {
        "type": "Polygon",
        "coordinates": [
          [
            [
              77.2349368,
              28.556
            ],
            [
              77.2748334,
              28.556
            ],
            [
              77.2748334,
              28.4868118
            ],
            [
              77.2349368,
              28.4868118
            ],
            [
              77.2349368,
              28.556
            ]
          ]
        ]
      }
    },
    {
      "type": "Feature",
      "properties": {
        "name": "CR Park",
        "priority": 6,
        "fares": {
          "hatchback": 1200,
          "sedan": 1300,
          "suv": 1900,
          "suv_premium": 3300
        },
        "notes": "Provider: 1200 for CR Park specifically."
      },
      "geometry": {
        "type": "Polygon",
        "coordinates": [
          [
            [
              77.2495,
              28.54628
            ],
            [
              77.25302,
              28.54567
            ],
            [
              77.25601,
              28.54392
            ],
            [
              77.258,
              28.54129
            ],
            [
              77.2587,
              28.5382
            ],
            [
              77.258,
              28.53511
            ],
            [
              77.25601,
              28.53248
            ],
            [
              77.25302,
              28.53073
            ],
            [
              77.2495,
              28.53012
            ],
            [
              77.24598,
              28.53073
            ],
            [
              77.24299,
              28.53248
            ],
            [
              77.241,
              28.53511
            ],
            [
              77.2403,
              28.5382
            ],
            [
              77.241,
              28.54129
            ],
            [
              77.24299,
              28.54392
            ],
            [
              77.24598,
              28.54567
            ],
            [
              77.2495,
              28.54628
            ]
          ]
        ]
      }
    },
    {
      "type": "Feature",
      "properties": {
        "name": "RK Puram / Vasant Vihar",
        "priority": 4,
        "fares": {
          "hatchback": 1300,
          "sedan": 1400,
          "suv": 2100,
          "suv_premium": 3600
        },
        "notes": "Munirka, RK Puram, Vasant Vihar."
      },
      "geometry": {
        "type": "Polygon",
        "coordinates": [
          [
            [
              77.1452312,
              28.5748495
            ],
            [
              77.1704135,
              28.5744348
            ],
            [
              77.1707283,
              28.580378
            ],
            [
              77.189619,
              28.5696005
            ],
            [
              77.1830766,
              28.5580471
            ],
            [
              77.1457411,
              28.5567171
            ],
            [
              77.1452312,
              28.5748495
            ]
          ]
        ]
      }
    },
    {
      "type": "Feature",
      "properties": {
        "name": "DU North Campus",
        "priority": 4,
        "fares": {
          "hatchback": 1400,
          "sedan": 1500,
          "suv": 2250,
          "suv_premium": 3850
        },
        "notes": "Civil Lines, Majnu ka Tila."
      },
      "geometry": {
        "type": "Polygon",
        "coordinates": [
          [
            [
              77.195,
              28.705
            ],
            [
              77.235,
              28.705
            ],
            [
              77.235,
              28.665
            ],
            [
              77.2066811,
              28.6649063
            ],
            [
              77.2022814,
              28.6722651
            ],
            [
              77.1976067,
              28.6756428
            ],
            [
              77.1944444,
              28.6799853
            ],
            [
              77.195,
              28.705
            ]
          ]
        ]
      }
    },
    {
      "type": "Feature",
      "properties": {
        "name": "Rohini / Pitampura",
        "priority": 2,
        "fares": {
          "hatchback": 1600,
          "sedan": 1700,
          "suv": 2550,
          "suv_premium": 4400
        },
        "notes": "Includes Model Town, Azadpur."
      },
      "geometry": {
        "type": "Polygon",
        "coordinates": [
          [
            [
              77.04,
              28.75
            ],
            [
              77.2,
              28.75
            ],
            [
              77.2,
              28.68
            ],
            [
              77.04,
              28.68
            ],
            [
              77.04,
              28.75
            ]
          ]
        ]
      }
    },
    {
      "type": "Feature",
      "properties": {
        "name": "West Delhi",
        "priority": 2,
        "fares": {
          "hatchback": 1600,
          "sedan": 1700,
          "suv": 2550,
          "suv_premium": 4400
        },
        "notes": "Rajouri Garden, Janakpuri, Tilak Nagar, Uttam Nagar."
      },
      "geometry": {
        "type": "Polygon",
        "coordinates": [
          [
            [
              77.04,
              28.68
            ],
            [
              77.17793,
              28.68
            ],
            [
              77.1469157,
              28.6487564
            ],
            [
              77.079976,
              28.5927942
            ],
            [
              77.0700754,
              28.5942775
            ],
            [
              77.0702743,
              28.6150578
            ],
            [
              77.0541422,
              28.611333
            ],
            [
              77.04,
              28.68
            ]
          ]
        ]
      }
    },
    {
      "type": "Feature",
      "properties": {
        "name": "Gurugram",
        "priority": 2,
        "fares": {
          "hatchback": 1600,
          "sedan": 1700,
          "suv": 2550,
          "suv_premium": 4400
        },
        "notes": "Cyber City, Udyog Vihar, DLF 1-3, MG Road, Sector 29, Golf Course Road - provider confirmed same 1600 as Huda City Centre."
      },
      "geometry": {
        "type": "Polygon",
        "coordinates": [
          [
            [
              76.9290024,
              28.525
            ],
            [
              77.125,
              28.525
            ],
            [
              77.1211385,
              28.4616048
            ],
            [
              77.156022,
              28.4236289
            ],
            [
              77.0325455,
              28.4246028
            ],
            [
              77.029777,
              28.4431054
            ],
            [
              76.9290024,
              28.4450529
            ],
            [
              76.9290024,
              28.525
            ]
          ]
        ]
      }
    },
    {
      "type": "Feature",
      "properties": {
        "name": "Sohna Road",
        "priority": 3,
        "fares": {
          "hatchback": 1700,
          "sedan": 1800,
          "suv": 2700,
          "suv_premium": 4700
        }
      },
      "geometry": {
        "type": "Polygon",
        "coordinates": [
          [
            [
              77,
              28.425
            ],
            [
              77.1528208,
              28.425
            ],
            [
              77.1528208,
              28.3641844
            ],
            [
              77,
              28.3641844
            ],
            [
              77,
              28.425
            ]
          ]
        ]
      }
    },
    {
      "type": "Feature",
      "properties": {
        "name": "Ballabhgarh",
        "priority": 5,
        "fares": {
          "hatchback": 1500,
          "sedan": 1600,
          "suv": 2400,
          "suv_premium": 4150
        }
      },
      "geometry": {
        "type": "Polygon",
        "coordinates": [
          [
            [
              77.327907,
              28.3633015
            ],
            [
              77.3836245,
              28.3812143
            ],
            [
              77.4744409,
              28.3962965
            ],
            [
              77.4693438,
              28.3689585
            ],
            [
              77.4420208,
              28.3401988
            ],
            [
              77.4248769,
              28.3373696
            ],
            [
              77.4216625,
              28.3218074
            ],
            [
              77.3943394,
              28.3029412
            ],
            [
              77.3584445,
              28.2977523
            ],
            [
              77.3536228,
              28.293035
            ],
            [
              77.3252283,
              28.2925633
            ],
            [
              77.2957622,
              28.294922
            ],
            [
              77.2491524,
              28.3052996
            ],
            [
              77.2186149,
              28.3180345
            ],
            [
              77.2092468,
              28.3911122
            ],
            [
              77.2989767,
              28.3585871
            ],
            [
              77.3107631,
              28.3585871
            ],
            [
              77.327907,
              28.3633015
            ]
          ]
        ]
      }
    },
    {
      "type": "Feature",
      "properties": {
        "name": "Meerut division",
        "priority": 5,
        "fares": {
          "hatchback": 1800,
          "sedan": 2000,
          "suv": 3000,
          "suv_premium": 4950
        },
        "notes": "Chaudhari Charan Singh University/subharti University/Lala Lajpat Rai medical College/Meerut bypass/modipuram"
      },
      "geometry": {
        "type": "Polygon",
        "coordinates": [
          [
            [
              77.69706,
              29.04813
            ],
            [
              77.75705,
              29.05133
            ],
            [
              77.79276,
              29.01648
            ],
            [
              77.79551,
              28.95156
            ],
            [
              77.78521,
              28.90886
            ],
            [
              77.73439,
              28.91126
            ],
            [
              77.69457,
              28.92149
            ],
            [
              77.66985,
              28.91908
            ],
            [
              77.63552,
              28.9281
            ],
            [
              77.63483,
              28.95036
            ],
            [
              77.6362,
              28.98643
            ],
            [
              77.6465,
              29.00747
            ],
            [
              77.66848,
              29.04172
            ],
            [
              77.69706,
              29.04813
            ]
          ]
        ]
      }
    },
    {
      "type": "Feature",
      "properties": {
        "name": "Sonipat",
        "priority": 5,
        "fares": {
          "hatchback": 1800,
          "sedan": 2000,
          "suv": 2800,
          "suv_premium": 4950
        },
        "notes": "Ashoka University Sonipat/Jindal University/Sonipat city/Rajiv Gandhi education City"
      },
      "geometry": {
        "type": "Polygon",
        "coordinates": [
          [
            [
              77.07418,
              29.02307
            ],
            [
              77.10577,
              29.02006
            ],
            [
              77.13736,
              28.99602
            ],
            [
              77.14628,
              28.96356
            ],
            [
              77.13461,
              28.94432
            ],
            [
              77.1456,
              28.91124
            ],
            [
              77.12156,
              28.8974
            ],
            [
              77.08654,
              28.8986
            ],
            [
              77.06457,
              28.91966
            ],
            [
              77.04329,
              28.94311
            ],
            [
              77.02612,
              28.96596
            ],
            [
              77.02063,
              28.99602
            ],
            [
              77.03367,
              29.01465
            ],
            [
              77.05015,
              29.02787
            ],
            [
              77.07418,
              29.02307
            ]
          ]
        ]
      }
    }
  ]
}